
# Worst residual: 6.70 km
# MJD 57832.000000 (2017 Mar 20  0:00)
SOLRAD 11A = 1976-023C = NORAD 08748 = WB31C9F = XC83E0D
1 08748U 76023C   17079.49919926  .00000000  00000-0  00000-0 0  7367
2 08748 035.0384 355.2918 0031381 001.3312 130.6183 00.19645997    03

# Worst residual: 11.21 km
# MJD 57833.000000 (2017 Mar 21  0:00)
SOLRAD 11A = 1976-023C = NORAD 08748 = WB31C9F = XC83E0D
1 08748U 76023C   17080.49919926  .00000000  00000-0  00000-0 0  7369
2 08748 035.0369 355.2785 0034404 342.5390 220.2568 00.19658893    05

# Worst residual: 8.72 km
# MJD 57834.000000 (2017 Mar 22  0:00)
SOLRAD 11A = 1976-023C = NORAD 08748 = WB31C9F = XC83E0D
1 08748U 76023C   17081.49919926  .00000000  00000-0  00000-0 0  7360
2 08748 035.0350 355.2593 0048435 329.0663 304.6206 00.19639578    09

# Worst residual: 8.26 km
# MJD 57835.000000 (2017 Mar 23  0:00)
SOLRAD 11A = 1976-023C = NORAD 08748 = WB31C9F = XC83E0D
1 08748U 76023C   17082.49919926  .00000000  00000-0  00000-0 0  7361
2 08748 035.0424 355.2232 0051379 326.8935 017.4735 00.19630285    01

# Worst residual: 9.92 km
# MJD 57836.000000 (2017 Mar 24  0:00)
SOLRAD 11A = 1976-023C = NORAD 08748 = WB31C9F = XC83E0D
1 08748U 76023C   17083.49919926  .00000000  00000-0  00000-0 0  7362
2 08748 035.0441 355.2094 0033038 323.9412 091.2968 00.19670154    03

# Worst residual: 9.60 km
# MJD 57837.000000 (2017 Mar 25  0:00)
SOLRAD 11A = 1976-023C = NORAD 08748 = WB31C9F = XC83E0D
1 08748U 76023C   17084.49919926  .00000000  00000-0  00000-0 0  7363
2 08748 035.0421 355.1977 0015886 319.8556 166.2990 00.19646558    03

# Worst residual: 4.87 km
# MJD 57838.000000 (2017 Mar 26  0:00)
SOLRAD 11A = 1976-023C = NORAD 08748 = WB31C9F = XC83E0D
1 08748U 76023C   17085.49919926  .00000000  00000-0  00000-0 0  7364
2 08748 035.0401 355.1844 0011199 301.6205 255.2295 00.19629358    03

# Worst residual: 13.38 km
# MJD 57839.000000 (2017 Mar 27  0:00)
SOLRAD 11A = 1976-023C = NORAD 08748 = WB31C9F = XC83E0D
1 08748U 76023C   17086.49919926  .00000000  00000-0  00000-0 0  7365
2 08748 035.0390 355.1717 0023760 357.4979 270.1970 00.19682711    01

# Worst residual: 14.43 km
# MJD 57840.000000 (2017 Mar 28  0:00)
SOLRAD 11A = 1976-023C = NORAD 08748 = WB31C9F = XC83E0D
1 08748U 76023C   17087.49919926  .00000000  00000-0  00000-0 0  7366
2 08748 035.0351 355.1610 0046088 357.4016 341.2730 00.19647545    00

# Worst residual: 13.42 km
# MJD 57841.000000 (2017 Mar 29  0:00)
SOLRAD 11A = 1976-023C = NORAD 08748 = WB31C9F = XC83E0D
1 08748U 76023C   17088.49919926  .00000000  00000-0  00000-0 0  7367
2 08748 035.0124 355.1369 0060873 348.3868 060.8095 00.19614926    06

# Worst residual: 10.84 km
# MJD 57842.000000 (2017 Mar 30  0:00)
SOLRAD 11A = 1976-023C = NORAD 08748 = WB31C9F = XC83E0D
1 08748U 76023C   17089.49919926  .00000000  00000-0  00000-0 0  7368
2 08748 035.0069 355.1052 0059234 320.7236 159.3465 00.19691856    07

# Worst residual: 6.29 km
# MJD 57843.000000 (2017 Mar 31  0:00)
SOLRAD 11A = 1976-023C = NORAD 08748 = WB31C9F = XC83E0D
1 08748U 76023C   17090.49919926  .00000000  00000-0  00000-0 0  7360
2 08748 035.0028 355.0935 0050145 305.7551 245.2306 00.19654296    02

# Worst residual: 2.87 km
# MJD 57844.000000 (2017 Apr  1  0:00)
SOLRAD 11A = 1976-023C = NORAD 08748 = WB31C9F = XC83E0D
1 08748U 76023C   17091.49919926  .00000000  00000-0  00000-0 0  7361
2 08748 035.0032 355.0839 0048697 302.5901 319.0890 00.19646214    02

# Worst residual: 6.55 km
# MJD 57845.000000 (2017 Apr  2  0:00)
SOLRAD 11A = 1976-023C = NORAD 08748 = WB31C9F = XC83E0D
1 08748U 76023C   17092.49919926  .00000000  00000-0  00000-0 0  7362
2 08748 035.0009 355.0750 0042256 310.4535 022.0202 00.19668173    00

# Worst residual: 8.89 km
# MJD 57846.000000 (2017 Apr  3  0:00)
SOLRAD 11A = 1976-023C = NORAD 08748 = WB31C9F = XC83E0D
1 08748U 76023C   17093.49919926  .00000000  00000-0  00000-0 0  7363
2 08748 035.0022 355.0621 0033948 316.5628 086.8024 00.19673503    03

# Worst residual: 6.64 km
# MJD 57847.000000 (2017 Apr  4  0:00)
SOLRAD 11A = 1976-023C = NORAD 08748 = WB31C9F = XC83E0D
1 08748U 76023C   17094.49919926  .00000000  00000-0  00000-0 0  7364
2 08748 034.9991 355.0247 0024185 345.4827 128.6679 00.19626904    09

# Worst residual: 8.00 km
# MJD 57848.000000 (2017 Apr  5  0:00)
SOLRAD 11A = 1976-023C = NORAD 08748 = WB31C9F = XC83E0D
1 08748U 76023C   17095.49919926  .00000000  00000-0  00000-0 0  7365
2 08748 035.0111 354.9901 0034281 343.6752 201.1531 00.19653793    05

# Worst residual: 8.91 km
# MJD 57849.000000 (2017 Apr  6  0:00)
SOLRAD 11A = 1976-023C = NORAD 08748 = WB31C9F = XC83E0D
1 08748U 76023C   17096.49919926  .00000000  00000-0  00000-0 0  7366
2 08748 035.0105 354.9768 0048137 339.2446 276.4940 00.19669657    00

# Worst residual: 7.42 km
# MJD 57850.000000 (2017 Apr  7  0:00)
SOLRAD 11A = 1976-023C = NORAD 08748 = WB31C9F = XC83E0D
1 08748U 76023C   17097.49919926  .00000000  00000-0  00000-0 0  7367
2 08748 035.0083 354.9651 0063711 337.9854 348.6105 00.19638400    06

# Worst residual: 7.84 km
# MJD 57851.000000 (2017 Apr  8  0:00)
SOLRAD 11A = 1976-023C = NORAD 08748 = WB31C9F = XC83E0D
1 08748U 76023C   17098.49919926  .00000000  00000-0  00000-0 0  7368
2 08748 035.0070 354.9515 0063287 340.5330 056.7721 00.19636894    04

# Worst residual: 14.77 km
# MJD 57852.000000 (2017 Apr  9  0:00)
SOLRAD 11A = 1976-023C = NORAD 08748 = WB31C9F = XC83E0D
1 08748U 76023C   17099.49919926  .00000000  00000-0  00000-0 0  7369
2 08748 035.0060 354.9414 0050677 324.9599 143.2637 00.19677621    04

# Worst residual: 11.27 km
# MJD 57853.000000 (2017 Apr 10  0:00)
SOLRAD 11A = 1976-023C = NORAD 08748 = WB31C9F = XC83E0D
1 08748U 76023C   17100.49919926  .00000000  00000-0  00000-0 0  7362
2 08748 034.9995 354.9305 0031171 300.3059 238.7879 00.19617420    04

# Worst residual: 11.07 km
# MJD 57854.000000 (2017 Apr 11  0:00)
SOLRAD 11A = 1976-023C = NORAD 08748 = WB31C9F = XC83E0D
1 08748U 76023C   17101.49919926  .00000000  00000-0  00000-0 0  7363
2 08748 034.9878 354.9070 0027300 317.8523 291.8488 00.19640439    03

# Worst residual: 13.52 km
# MJD 57855.000000 (2017 Apr 12  0:00)
SOLRAD 11A = 1976-023C = NORAD 08748 = WB31C9F = XC83E0D
1 08748U 76023C   17102.49919926  .00000000  00000-0  00000-0 0  7364
2 08748 034.9849 354.8959 0037563 353.4751 327.1920 00.19670096    03

# Worst residual: 6.44 km
# MJD 57856.000000 (2017 Apr 13  0:00)
SOLRAD 11A = 1976-023C = NORAD 08748 = WB31C9F = XC83E0D
1 08748U 76023C   17103.49919926  .00000000  00000-0  00000-0 0  7365
2 08748 034.9843 354.8827 0052982 003.6506 027.8370 00.19627320    00

# Worst residual: 9.22 km
# MJD 57857.000000 (2017 Apr 14  0:00)
SOLRAD 11A = 1976-023C = NORAD 08748 = WB31C9F = XC83E0D
1 08748U 76023C   17104.49919926  .00000000  00000-0  00000-0 0  7366
2 08748 034.9854 354.8794 0045288 359.2309 102.9877 00.19647852    06
